[{"OBJECT_NAME":"HYPERFIELD-1A","OBJECT_ID":"2024-149CY","EPOCH":"2026-03-09T18:21:25.814304","MEAN_MOTION":15.29681349,"ECCENTRICITY":0.00038648,"INCLINATION":97.3842,"RA_OF_ASC_NODE":149.5066,"ARG_OF_PERICENTER":313.7844,"MEAN_ANOMALY":46.3076,"EPHEMERIS_TYPE":0,"CLASSIFICATION_TYPE":"U","NORAD_CAT_ID":60562,"ELEMENT_SET_NO":999,"REV_AT_EPOCH":8683,"BSTAR":0.00030052114,"MEAN_MOTION_DOT":8.569e-5,"MEAN_MOTION_DDOT":0},{"OBJECT_NAME":"STARLINK-35483","OBJECT_ID":"2025-245U","EPOCH":"2026-03-09T21:47:16.749600","MEAN_MOTION":15.30222685,"ECCENTRICITY":9.778e-5,"INCLINATION":53.1589,"RA_OF_ASC_NODE":282.6176,"ARG_OF_PERICENTER":81.421,"MEAN_ANOMALY":278.6901,"EPHEMERIS_TYPE":0,"CLASSIFICATION_TYPE":"U","NORAD_CAT_ID":66252,"ELEMENT_SET_NO":999,"REV_AT_EPOCH":2124,"BSTAR":0.0012960184,"MEAN_MOTION_DOT":0.0003825,"MEAN_MOTION_DDOT":0}]
